0 PSLV DEB
1 28858U 01049PL  13281.19326780  .00007693  00000-0  70475-3 0  6264
2 28858 097.6178 271.9224 0033397 104.8119 255.6763 14.94768705577483
0 PSLV DEB
1 28858U 01049PL  13283.20149703  .00008076  00000-0  73859-3 0  6272
2 28858 097.6177 273.8689 0033894 100.2180 260.3479 14.94804816577782
0 PSLV DEB
1 28858U 01049PL  13284.20558039  .00008719  00000-0  79507-3 0  6280
2 28858 097.6181 274.8549 0036395 094.8070 265.7620 14.94828956577933
0 PSLV DEB
1 28858U 01049PL  13287.21775821  .00011026  00000-0  10036-2 0  6303
2 28858 097.6168 277.7742 0033633 080.8993 279.7643 14.94908129578387
0 PSLV DEB
1 28858U 01049PL  13289.76122124  .00011463  00000-0  10413-2 0  6312
2 28858 097.6185 280.2444 0034054 076.1906 284.3641 14.94969135578760
0 PSLV DEB
1 28858U 01049PL  13291.16677789  .00011550  00000-0  10484-2 0  6327
2 28858 097.6183 281.6084 0033754 070.4737 290.0213 14.95002838578979
0 PSLV DEB
1 28858U 01049PL  13292.17073359  .00011779  00000-0  10683-2 0  6337
2 28858 097.6161 282.5810 0033832 065.5664 294.9281 14.95028900579127
0 PSLV DEB
1 28858U 01049PL  13293.17466929  .00012143  00000-0  11002-2 0  6340
2 28858 097.6161 283.5572 0033956 062.2108 298.2977 14.95057215579273
0 PSLV DEB
1 28858U 01049PL  13295.18248460  .00013103  00000-0  11855-2 0  6355
2 28858 097.6169 285.5085 0033057 059.5407 301.0476 14.95118486579573
